OBJECT_NAME,OBJECT_ID,EPOCH,MEAN_MOTION,ECCENTRICITY,INCLINATION,RA_OF_ASC_NODE,ARG_OF_PERICENTER,MEAN_ANOMALY,EPHEMERIS_TYPE,CLASSIFICATION_TYPE,NORAD_CAT_ID,ELEMENT_SET_NO,REV_AT_EPOCH,BSTAR,MEAN_MOTION_DOT,MEAN_MOTION_DDOT
GSAT0216 (GALILEO 20),2017-079B,2026-07-06T01:51:17.358336,1.70474558,.00048386,55.0699,220.9866,276.6920,83.3236,0,U,43056,999,5332,0,.76E-6,0
GSAT0217 (GALILEO 21),2017-079C,2026-07-07T11:18:36.052704,1.70474257,.000391,55.0679,220.9459,293.3909,66.6394,0,U,43057,999,5333,0,.81E-6,0
GSAT0218 (GALILEO 22),2017-079D,2026-07-05T08:16:48.241920,1.70474403,.0006103,55.0681,221.0021,274.7664,85.2358,0,U,43058,999,5332,0,.75E-6,0
BEIDOU-3 M7 (C27),2018-003A,2026-07-05T14:34:22.092960,1.86228486,.0004481,54.3105,301.6730,97.3589,262.7166,0,U,43107,999,5769,0,-.6E-6,0
BEIDOU-3 M8 (C28),2018-003B,2026-07-07T03:54:03.835296,1.86231031,.0002979,54.3015,301.6004,257.8270,102.1630,0,U,43108,999,5773,0,-.63E-6,0
BEIDOU-3 M4 (C22),2018-018A,2026-07-07T01:38:57.124608,1.86231345,.00074283,56.6676,62.4940,26.7445,333.3571,0,U,43207,999,5711,0,-.42E-6,0
BEIDOU-3 M3 (C21),2018-018B,2026-07-06T14:21:28.890720,1.86231254,.00078802,56.6666,62.5134,344.5989,15.4415,0,U,43208,999,5710,0,-.41E-6,0
BEIDOU-3 M9 (C29),2018-029A,2026-07-06T06:42:06.020640,1.86228489,.00010312,54.1753,299.2817,180.8160,179.2113,0,U,43245,999,5625,0,-.59E-6,0
BEIDOU-3 M10 (C30),2018-029B,2026-07-07T06:53:51.804960,1.86229562,.00033155,54.1719,299.2724,35.7721,324.2760,0,U,43246,999,5625,0,-.61E-6,0
IRNSS-1I,2018-035A,2026-07-06T20:05:50.528832,1.00279237,.00180874,28.7973,73.8917,180.4002,27.0525,0,U,43286,999,3027,0,.79E-6,0
COSMOS 2527 (756),2018-053A,2026-07-07T06:18:40.051584,2.13102315,.00067184,65.5882,73.2382,232.6359,127.3650,0,U,43508,999,6270,0,-.19E-6,0
BEIDOU-2 IGSO-7 (C16),2018-057A,2026-07-01T21:23:21.693984,1.00246939,.01049468,55.1981,162.9292,237.8611,308.6338,0,U,43539,999,2927,0,-.33E-6,0
GSAT0221 (GALILEO 25),2018-060A,2026-07-06T10:08:01.392576,1.70476116,.00025735,57.1630,341.2618,291.0401,68.9323,0,U,43564,999,4949,0,-.71E-6,0
GSAT0222 (GALILEO 26),2018-060B,2026-07-07T19:33:43.914240,1.70475832,.000256,57.1657,341.2279,237.4351,122.5408,0,U,43565,999,4956,0,-.72E-6,0
GSAT0219 (GALILEO 23),2018-060C,2026-07-06T20:42:25.014528,1.70476064,.00017645,57.1653,341.2551,304.6293,55.3544,0,U,43566,999,4952,0,-.71E-6,0
GSAT0220 (GALILEO 24),2018-060D,2026-07-07T02:00:38.927232,1.70475891,.00020428,57.1651,341.2500,295.4390,64.5404,0,U,43567,999,4951,0,-.71E-6,0
BEIDOU-3 M5 (C23),2018-062A,2026-07-08T01:09:35.299008,1.86228784,.0005713,54.0865,181.5948,291.4291,68.5184,0,U,43581,999,5402,0,.121E-5,0
BEIDOU-3 M6 (C24),2018-062B,2026-07-07T08:59:54.178368,1.86227975,.0005088,54.0860,181.6071,9.1977,350.8186,0,U,43582,999,5401,0,.119E-5,0
BEIDOU-3 M12 (C26),2018-067A,2026-07-07T07:31:14.583936,1.86227798,.0007908,54.1816,180.3578,30.2614,329.7892,0,U,43602,999,5349,0,.118E-5,0
BEIDOU-3 M11 (C25),2018-067B,2026-07-07T23:39:02.480832,1.86227293,.0004631,54.1790,180.2986,13.6322,346.3866,0,U,43603,999,5353,0,.12E-5,0
BEIDOU-3 M13 (C32),2018-072A,2026-07-06T20:47:25.189728,1.86231573,.00064537,56.6412,62.0108,332.0878,27.9414,0,U,43622,999,5302,0,-.42E-6,0
BEIDOU-3 M14 (C33),2018-072B,2026-07-06T17:33:39.540960,1.86231254,.000556,56.6432,62.0091,9.9346,350.1406,0,U,43623,999,5301,0,-.42E-6,0
BEIDOU-3 M16 (C35),2018-078A,2026-07-07T10:10:07.711968,1.86232245,.00067519,54.0702,299.2766,40.2464,319.8292,0,U,43647,999,5253,0,-.62E-6,0
BEIDOU-3 M15 (C34),2018-078B,2026-07-06T11:29:52.466208,1.86232415,.00037704,54.0667,299.3099,58.5392,301.5247,0,U,43648,999,5253,0,-.6E-6,0
BEIDOU-3 G1 (C59),2018-085A,2026-07-08T04:11:42.809856,1.00273357,.0008387,2.9183,96.8220,354.5564,57.6147,0,U,43683,999,2827,0,-.96E-6,0
COSMOS 2529 (757),2018-086A,2026-07-06T10:05:52.198656,2.13102124,.00121282,64.2965,191.9448,256.2466,103.6470,0,U,43687,999,5969,0,.113E-5,0
BEIDOU-3 M17 (C36),2018-093A,2026-07-07T09:29:21.213024,1.86228313,.00101575,54.1700,181.6109,293.2280,212.5865,0,U,43706,999,5191,0,.119E-5,0
BEIDOU-3 M18 (C37),2018-093B,2026-07-07T00:59:33.629280,1.86226750,.00080669,54.1709,181.6150,321.5361,38.4125,0,U,43707,999,5190,0,.117E-5,0
GPS BIII-1  (PRN 04),2018-109A,2026-07-08T04:41:28.182048,2.00562547,.0038539,55.6938,91.3584,197.3803,335.3129,0,U,43873,999,5549,0,-.23E-6,0
BEIDOU-3 IGSO-1 (C38),2019-023A,2026-07-07T09:30:26.017344,1.00285689,.00255845,58.7230,37.4430,223.9763,285.4775,0,U,44204,999,741,0,-.208E-5,0
BEIDOU-2 G8 (C01),2019-027A,2026-07-07T21:16:42.068064,1.00274660,.0009917,1.7072,74.5162,284.7279,30.2695,0,U,44231,999,2628,0,-.233E-5,0
